{
  "norad_id": 66254,
  "name": "STARLINK-35488",
  "history": [
    {
      "epoch": "2026-03-28T14:52:05.693376",
      "apogee_km": 476.0158982491821,
      "perigee_km": 474.3007925560405,
      "latitude_deg": -7.507498280930581,
      "longitude_deg": 144.87299263989553,
      "semi_major_axis_km": 6853.295345402611,
      "eccentricity": 0.00012513,
      "inclination_deg": 53.1604,
      "raan_deg": 196.0413,
      "arg_perigee_deg": 87.3801,
      "mean_anomaly_deg": 272.7343,
      "mean_motion_rev_day": 15.30218998
    }
  ]
}